OBJECT_NAME,OBJECT_ID,EPOCH,MEAN_MOTION,ECCENTRICITY,INCLINATION,RA_OF_ASC_NODE,ARG_OF_PERICENTER,MEAN_ANOMALY,EPHEMERIS_TYPE,CLASSIFICATION_TYPE,NORAD_CAT_ID,ELEMENT_SET_NO,REV_AT_EPOCH,BSTAR,MEAN_MOTION_DOT,MEAN_MOTION_DDOT
NIMIQ 2,2002-062A,2026-07-13T14:39:25.643808,1.00270225,.00052421,9.5050,56.6147,54.1957,291.3229,0,U,27632,999,4444,0,-.8E-6,0
USA 167,2003-008A,2026-07-13T04:37:26.531616,1.00270462,.00032709,11.0111,43.1712,308.3672,247.1577,0,U,27691,999,703,0,-.6E-7,0
USA 169 (MILSTAR-2 4),2003-012A,2026-07-13T11:27:10.439424,1.00273417,.00992836,12.3880,29.6231,10.1906,215.4739,0,U,27711,999,3321,0,-.207E-5,0
ASIASAT 4,2003-014A,2026-07-13T12:36:13.126752,1.00270071,.00029104,4.7691,75.4153,39.0469,153.5231,0,U,27718,999,4556,0,-.231E-5,0
HELLAS-SAT 2,2003-020A,2026-07-13T09:59:40.699392,1.00271268,.00035143,7.4173,67.5674,80.0666,283.5473,0,U,27811,999,4311,0,-.94E-6,0
THURAYA-2,2003-026A,2026-07-13T05:07:00.435072,1.00273123,.0002502,8.8786,31.8559,24.9215,355.0752,0,U,27825,999,8461,0,.117E-5,0
OPTUS C1,2003-028B,2026-07-13T12:29:35.268576,1.00269270,.00051947,6.9531,69.0873,40.6051,164.8075,0,U,27831,999,5332,0,-.162E-5,0
USA 170,2003-040A,2026-07-13T05:01:30.960768,1.00274265,.0001768,10.5535,47.6965,80.2773,262.7232,0,U,27875,999,3325,0,.116E-5,0
GALAXY 13 (HORIZONS-1),2003-044A,2026-07-13T14:27:41.768928,1.00270573,.00021588,1.4854,83.5275,27.1195,247.7385,0,U,27954,999,4683,0,.127E-5,0
YAMAL 202,2003-053A,2026-07-13T14:24:18.646848,1.00272068,.00032573,6.4066,70.6159,41.0753,199.4059,0,U,28089,999,8296,0,-.9E-6,0
UFO 11 (USA 174),2003-057A,2026-07-13T13:49:27.084288,1.00270247,.00026671,8.9561,33.6940,92.3653,88.3347,0,U,28117,999,8271,0,-.113E-5,0
USA 176 (DSP 22),2004-004A,2026-07-13T09:48:26.775072,1.00266283,.0001144,12.0970,25.8717,287.5538,75.5682,0,U,28158,999,3320,0,-.307E-5,0
ABS-4 (MOBISAT-1),2004-007A,2026-07-13T05:11:59.957088,1.00272902,.0004604,6.1049,71.6890,41.7603,316.5886,0,U,28184,999,5259,0,.31E-6,0
INTELSAT 10-02,2004-022A,2026-07-12T23:46:16.586400,1.00271565,.00005158,0.0534,251.1781,344.4139,50.8437,0,U,28358,999,8081,0,-.12E-6,0
ANIK F2,2004-027A,2026-07-13T14:38:48.204096,1.00271258,.000355,3.3535,79.0935,31.5919,289.3716,0,U,28378,999,4152,0,-.57E-6,0
AMC-15,2004-041A,2026-07-12T07:22:38.750880,1.00271234,.00022643,0.0346,304.3045,184.5757,166.9270,0,U,28446,999,7955,0,-.87E-6,0
NSS-10,2005-003A,2026-07-13T11:34:27.733152,1.00270496,.00025761,6.5131,70.1303,39.8606,317.5303,0,U,28526,999,5341,0,-.261E-5,0
INMARSAT 4-F1,2005-009A,2026-07-12T07:47:38.777568,1.00271047,.00024737,5.2012,42.7812,73.2040,109.2466,0,U,28628,999,7792,0,.3E-6,0
DIRECTV 8,2005-019A,2026-07-13T14:36:33.420096,1.00271362,.00030252,0.0142,343.4071,143.5616,264.5981,0,U,28659,999,7733,0,-.3E-7,0
GALAXY 28 (G-28),2005-022A,2026-07-13T06:29:27.310272,1.00270676,.0002307,3.3636,78.6126,32.1993,250.5910,0,U,28702,999,5223,0,-.206E-5,0
THAICOM 4,2005-028A,2026-07-13T12:56:38.626080,1.00270507,.00013826,0.3111,85.5327,9.6042,149.9277,0,U,28786,999,5251,0,-.366E-5,0
ANIK F1R,2005-036A,2026-07-13T14:39:55.596960,1.00271332,.00037039,4.3779,76.2509,28.3603,299.5541,0,U,28868,999,4671,0,-.83E-6,0
SYRACUSE 3A,2005-041B,2026-07-13T05:07:52.852224,1.00273254,.0002729,4.7063,75.5196,31.7280,307.4488,0,U,28885,999,7600,0,.122E-5,0
INMARSAT 4-F2,2005-044A,2026-07-13T12:26:07.434240,1.00270501,.00027787,5.1293,43.6582,60.6770,157.0798,0,U,28899,999,7578,0,-.268E-5,0
METEOSAT-9 (MSG-2),2005-049B,2026-07-13T05:07:37.874784,1.00271011,.0002075,9.4181,53.9066,356.1561,3.6006,0,U,28912,999,725,0,.115E-5,0
EUTELSAT 174A,2005-052A,2026-07-13T12:53:13.812288,1.00270669,.0005787,4.2830,76.2001,38.3133,184.1521,0,U,28924,999,5259,0,0,0
ECHOSTAR 10,2006-003A,2026-07-13T14:39:03.179808,1.00270700,.00010434,0.0329,312.3841,137.4085,311.2730,0,U,28935,999,7472,0,-.59E-6,0
SPAINSAT,2006-007A,2026-07-13T06:36:17.570304,1.00269749,.00045983,0.6284,86.0871,25.7903,248.1587,0,U,28945,999,7447,0,-.221E-5,0
JCSAT-5A,2006-010A,2026-07-13T12:22:52.744800,1.00270061,.00016416,1.1751,83.9229,25.3093,139.9125,0,U,29045,999,7403,0,-.333E-5,0
ASTRA 1KR,2006-012A,2026-07-13T13:33:15.325344,1.00269613,.00032783,0.5396,83.1750,21.5990,48.9768,0,U,29055,999,4596,0,.114E-5,0
GALAXY 16 (G-16),2006-023A,2026-07-13T12:03:33.018336,1.00271432,.00025378,0.0279,169.1758,317.3215,246.7665,0,U,29236,999,7323,0,-.13E-5,0
EUTELSAT 33F,2006-032A,2026-07-13T13:37:14.941920,1.00270850,.00033786,1.7274,81.9471,27.5158,59.3499,0,U,29270,999,4757,0,.15E-5,0
